NORAD_CAT_ID,OBJECT_NAME,OBJECT_TYPE,EPOCH,MEAN_MOTION,ECCENTRICITY,INCLINATION,RA_OF_ASC_NODE,ARG_OF_PERICENTER,MEAN_ANOMALY,BSTAR,MEAN_MOTION_DOT,MEAN_MOTION_DDOT,TLE_LINE0,TLE_LINE1,TLE_LINE2,SEMIMAJOR_AXIS,PERIOD,APOGEE,PERIGEE,DECAYED
54795.0,STARLINK-5436,PAYLOAD,2024-05-04 04:16:38,15.0883059,0.0001407,53.2152,176.9489,95.3798,264.7355,0.00022599,3.31e-05,0.0,0 STARLINK-5436,1 54795U 22175AP  24125.17821956  .00003310  00000-0  22599-3 0  9997,2 54795  53.2152 176.9489 0001407  95.3798 264.7355 15.08830590 76146,6917.909,95.438,540.748,538.801,0.0
54795.0,STARLINK-5436,PAYLOAD,2024-05-05 12:04:20,15.08844983,0.0001395,53.2157,170.9996,88.7868,271.3284,5.6691e-05,6.15e-06,0.0,0 STARLINK-5436,1 54795U 22175AP  24126.50302026  .00000615  00000-0  56691-4 0  9993,2 54795  53.2157 170.9996 0001395  88.7868 271.3284 15.08844983 76346,6917.865,95.437,540.695,538.765,0.0
54795.0,STARLINK-5436,PAYLOAD,2024-05-06 10:19:44,15.08841814,0.0001426,53.2158,166.837,84.9798,275.1357,0.00021959,3.209e-05,0.0,0 STARLINK-5436,1 54795U 22175AP  24127.43038047  .00003209  00000-0  21959-3 0  9995,2 54795  53.2158 166.8370 0001426  84.9798 275.1357 15.08841814 78640,6917.875,95.437,540.726,538.753,0.0
54795.0,STARLINK-5436,PAYLOAD,2024-05-06 19:52:03,15.08847809,0.0001453,53.215,165.053,83.5965,276.5192,0.00025591,3.788e-05,0.0,0 STARLINK-5436,1 54795U 22175AP  24127.82781829  .00003788  00000-0  25591-3 0  9999,2 54795  53.2150 165.0530 0001453  83.5965 276.5192 15.08847809 76541,6917.857,95.437,540.727,538.716,0.0
54795.0,STARLINK-5436,PAYLOAD,2024-05-07 08:35:08,15.08840176,0.0001463,53.215,162.6731,91.5856,268.5303,5.5667e-05,5.98e-06,0.0,0 STARLINK-5436,1 54795U 22175AP  24128.35774225  .00000598  00000-0  55667-4 0  9994,2 54795  53.2150 162.6731 0001463  91.5856 268.5303 15.08840176 76620,6917.88,95.438,540.757,538.733,0.0
54795.0,STARLINK-5436,PAYLOAD,2024-05-08 11:36:41,15.08844351,0.0001393,53.216,157.6168,96.0172,264.0979,6.2781e-05,7.11e-06,0.0,0 STARLINK-5436,1 54795U 22175AP  24129.48381917  .00000711  00000-0  62781-4 0  9993,2 54795  53.2160 157.6168 0001393  96.0172 264.0979 15.08844351 76799,6917.867,95.437,540.696,538.768,0.0
54795.0,STARLINK-5436,PAYLOAD,2024-05-09 11:27:29,15.08842088,0.0001279,53.2151,153.1574,86.3297,273.7841,0.00010116,1.323e-05,0.0,0 STARLINK-5436,1 54795U 22175AP  24130.47741947  .00001323  00000-0  10116-3 0  9991,2 54795  53.2151 153.1574 0001279  86.3297 273.7841 15.08842088 79102,6917.874,95.437,540.624,538.854,0.0
54795.0,STARLINK-5436,PAYLOAD,2024-05-10 01:45:57,15.08842702,0.000126,53.2149,150.4811,85.5447,274.5689,6.1587e-05,6.92e-06,0.0,0 STARLINK-5436,1 54795U 22175AP  24131.07358079  .00000692  00000-0  61587-4 0  9995,2 54795  53.2149 150.4811 0001260  85.5447 274.5689 15.08842702 77033,6917.872,95.437,540.609,538.865,0.0
54795.0,STARLINK-5436,PAYLOAD,2024-05-10 08:07:30,15.08839121,0.000125,53.215,149.2908,86.2301,273.8834,2.5416e-05,1.17e-06,0.0,0 STARLINK-5436,1 54795U 22175AP  24131.33854387  .00000117  00000-0  25416-4 0  9990,2 54795  53.2150 149.2908 0001250  86.2301 273.8834 15.08839121 79233,6917.883,95.438,540.613,538.883,0.0
54795.0,STARLINK-5436,PAYLOAD,2024-05-10 17:39:48,15.08843246,0.0001297,53.2154,147.5067,87.7549,272.3592,6.671e-05,7.74e-06,0.0,0 STARLINK-5436,1 54795U 22175AP  24131.73598037  .00000774  00000-0  66710-4 0  9992,2 54795  53.2154 147.5067 0001297  87.7549 272.3592 15.08843246 79299,6917.87,95.437,540.633,538.838,0.0
54795.0,STARLINK-5436,PAYLOAD,2024-05-11 04:47:31,15.0883903,0.0001405,53.2167,145.426,90.8905,269.2248,5.8392e-05,6.41e-06,0.0,0 STARLINK-5436,1 54795U 22175AP  24132.19966539  .00000641  00000-0  58392-4 0  9999,2 54795  53.2167 145.4260 0001405  90.8905 269.2248 15.08839030 77205,6917.883,95.438,540.72,538.776,0.0
54795.0,STARLINK-5436,PAYLOAD,2024-05-11 07:58:16,15.08860133,0.0001468,53.2171,144.8362,93.5524,266.5636,0.000304,4.556e-05,0.0,0 STARLINK-5436,1 54795U 22175AP  24132.33213327  .00004556  00000-0  30400-3 0  9993,2 54795  53.2171 144.8362 0001468  93.5524 266.5636 15.08860133 77223,6917.819,95.436,540.699,538.668,0.0
54795.0,STARLINK-5436,PAYLOAD,2024-05-11 17:30:34,15.08870484,0.0001304,53.2151,143.0455,68.5431,291.57,0.00047693,7.317e-05,0.0,0 STARLINK-5436,1 54795U 22175AP  24132.72956323  .00007317  00000-0  47693-3 0  9996,2 54795  53.2151 143.0455 0001304  68.5431 291.5700 15.08870484 79449,6917.787,95.436,540.554,538.75,0.0
54795.0,STARLINK-5436,PAYLOAD,2024-05-12 04:38:18,15.08810146,0.0001503,53.2152,140.9702,95.8521,264.2642,-0.00047466,-7.828e-05,0.0,0 STARLINK-5436,1 54795U 22175AP  24133.19327271 -.00007828  00000-0 -47466-3 0  9999,2 54795  53.2152 140.9702 0001503  95.8521 264.2642 15.08810146 77354,6917.972,95.439,540.876,538.797,0.0
54795.0,STARLINK-5436,PAYLOAD,2024-05-12 07:49:05,15.08806799,0.0001442,53.2155,140.3722,85.2107,274.905,-0.00063913,-0.00010436,0.0,0 STARLINK-5436,1 54795U 22175AP  24133.32575320 -.00010436  00000-0 -63913-3 0  9998,2 54795  53.2155 140.3722 0001442  85.2107 274.9050 15.08806799 79530,6917.982,95.44,540.844,538.849,0.0
54795.0,STARLINK-5436,PAYLOAD,2024-05-12 17:21:24,15.08805998,0.0001466,53.2155,138.5876,80.8232,279.2926,-0.00041277,-6.845e-05,0.0,0 STARLINK-5436,1 54795U 22175AP  24133.72320162 -.00006845  00000-0 -41277-3 0  9992,2 54795  53.2155 138.5876 0001466  80.8232 279.2926 15.08805998 79591,6917.984,95.44,540.863,538.835,0.0
54795.0,STARLINK-5436,PAYLOAD,2024-05-13 04:29:06,15.08822009,0.0001408,53.2158,136.5076,84.2793,275.836,0.00014377,2e-05,0.0,0 STARLINK-5436,1 54795U 22175AP  24134.18688644  .00002000  00000-0  14377-3 0  9993,2 54795  53.2158 136.5076 0001408  84.2793 275.8360 15.08822009 77505,6917.935,95.439,540.774,538.826,0.0
54795.0,STARLINK-5436,PAYLOAD,2024-05-13 09:15:16,15.08828015,0.0001215,53.2134,135.6116,69.2293,290.8829,0.00098719,0.00015453,0.0,0 STARLINK-5436,1 54795U 22175AP  24134.38561038  .00015453  00000-0  98719-3 0  9990,2 54795  53.2134 135.6116 0001215  69.2293 290.8829 15.08828015 79690,6917.917,95.438,540.623,538.941,0.0
54795.0,STARLINK-5436,PAYLOAD,2024-05-13 17:12:12,15.0883729,0.0001196,53.2129,134.1244,68.3878,291.7241,0.0008168,0.00012734,0.0,0 STARLINK-5436,1 54795U 22175AP  24134.71681091  .00012734  00000-0  81680-3 0  9997,2 54795  53.2129 134.1244 0001196  68.3878 291.7241 15.08837290 79746,6917.889,95.438,540.581,538.926,0.0
54795.0,STARLINK-5436,PAYLOAD,2024-05-14 04:19:54,15.08850914,0.0001203,53.2126,132.0425,69.0918,291.0203,0.00081038,0.00012637,0.0,0 STARLINK-5436,1 54795U 22175AP  24135.18048885  .00012637  00000-0  81038-3 0  9996,2 54795  53.2126 132.0425 0001203  69.0918 291.0203 15.08850914 77650,6917.847,95.437,540.544,538.88,0.0
54795.0,STARLINK-5436,PAYLOAD,2024-05-14 05:55:17,15.08851329,0.000135,53.2138,131.745,69.3884,290.7252,0.00076679,0.0001194,0.0,0 STARLINK-5436,1 54795U 22175AP  24135.24672908  .00011940  00000-0  76679-3 0  9993,2 54795  53.2138 131.7450 0001350  69.3884 290.7252 15.08851329 79827,6917.846,95.437,540.645,538.777,0.0
54795.0,STARLINK-5436,PAYLOAD,2024-05-14 17:02:58,15.08860338,0.0001517,53.2141,129.665,68.8062,291.3092,0.00076572,0.00011926,0.0,0 STARLINK-5436,1 54795U 22175AP  24135.71040497  .00011926  00000-0  76572-3 0  9993,2 54795  53.2141 129.6650 0001517  68.8062 291.3092 15.08860338 79892,6917.818,95.436,540.733,538.634,0.0
54795.0,STARLINK-5436,PAYLOAD,2024-05-15 05:46:03,15.08869546,0.0001557,53.2146,127.2859,69.2717,290.8442,0.00068388,0.00010621,0.0,0 STARLINK-5436,1 54795U 22175AP  24136.24031659  .00010621  00000-0  68388-3 0  9999,2 54795  53.2146 127.2859 0001557  69.2717 290.8442 15.08869546 77811,6917.79,95.436,540.732,538.578,0.0
54795.0,STARLINK-5436,PAYLOAD,2024-05-15 08:56:49,15.08876803,0.0001589,53.2147,126.6913,69.2129,290.9033,0.00085766,0.00013402,0.0,0 STARLINK-5436,1 54795U 22175AP  24136.37279350  .00013402  00000-0  85766-3 0  9994,2 54795  53.2147 126.6913 0001589  69.2129 290.9033 15.08876803 79990,6917.768,95.435,540.732,538.534,0.0
54795.0,STARLINK-5436,PAYLOAD,2024-05-16 05:36:49,15.08855429,0.0001357,53.2148,122.8256,67.5763,292.5373,0.00013946,1.933e-05,0.0,0 STARLINK-5436,1 54795U 22175AP  24137.23390918  .00001933  00000-0  13946-3 0  9991,2 54795  53.2148 122.8256 0001357  67.5763 292.5373 15.08855429 77968,6917.833,95.437,540.637,538.759,0.0
54795.0,STARLINK-5436,PAYLOAD,2024-05-16 08:47:35,15.08853988,0.000147,53.2148,122.2308,71.6485,288.4667,0.00011815,1.594e-05,0.0,0 STARLINK-5436,1 54795U 22175AP  24137.36638861  .00001594  00000-0  11815-3 0  9993,2 54795  53.2148 122.2308 0001470  71.6485 288.4667 15.08853988 80145,6917.838,95.437,540.72,538.686,0.0
54795.0,STARLINK-5436,PAYLOAD,2024-05-17 05:27:36,15.08851867,0.0001556,53.2153,118.3625,82.2146,277.9023,5.9237e-05,6.55e-06,0.0,0 STARLINK-5436,1 54795U 22175AP  24138.22750440  .00000655  00000-0  59237-4 0  9995,2 54795  53.2153 118.3625 0001556  82.2146 277.9023 15.08851867 78113,6917.844,95.437,540.786,538.633,0.0
54795.0,STARLINK-5436,PAYLOAD,2024-05-17 08:38:22,15.08850812,0.0001509,53.2155,117.7681,81.1938,278.9225,4.5118e-05,4.3e-06,0.0,0 STARLINK-5436,1 54795U 22175AP  24138.35998395  .00000430  00000-0  45118-4 0  9996,2 54795  53.2155 117.7681 0001509  81.1938 278.9225 15.08850812 80291,6917.847,95.437,540.756,538.668,0.0
54795.0,STARLINK-5436,PAYLOAD,2024-05-18 05:18:23,15.08842807,0.000144,53.2148,113.9015,84.9874,275.1282,8.3439e-05,1.04e-05,0.0,0 STARLINK-5436,1 54795U 22175AP  24139.22110627  .00001040  00000-0  83439-4 0  9993,2 54795  53.2148 113.9015 0001440  84.9874 275.1282 15.08842807 78267,6917.872,95.437,540.733,538.741,0.0
54795.0,STARLINK-5436,PAYLOAD,2024-05-18 21:12:15,15.08828612,0.0002299,53.215,110.9288,76.7453,283.3795,-0.00019819,-3.44e-05,0.0,0 STARLINK-5436,1 54795U 22175AP  24139.88351273 -.00003440  00000-0 -19819-3 0  9997,2 54795  53.2150 110.9288 0002299  76.7453 283.3795 15.08828612 78363,6917.915,95.438,541.371,538.19,0.0
